{
    "links": {
        "self": "http://www.neowsapp.com/rest/v1/neo/3843490?api_key=iIulBulltgU6a56xZRHN4H3l9WmuAYTsLGpBGhQ2"
    },
    "id": "3843490",
    "neo_reference_id": "3843490",
    "name": "(2019 PT)",
    "designation": "2019 PT",
    "nasa_jpl_url": "http://ssd.jpl.nasa.gov/sbdb.cgi?sstr=3843490",
    "absolute_magnitude_h": 25.9,
    "estimated_diameter": {
        "kilometers": {
            "estimated_diameter_min": 0.0175612318,
            "estimated_diameter_max": 0.0392681082
        },
        "meters": {
            "estimated_diameter_min": 17.561231848,
            "estimated_diameter_max": 39.2681081809
        },
        "miles": {
            "estimated_diameter_min": 0.0109120402,
            "estimated_diameter_max": 0.0244000636
        },
        "feet": {
            "estimated_diameter_min": 57.6155918963,
            "estimated_diameter_max": 128.8323800441
        }
    },
    "is_potentially_hazardous_asteroid": false,
    "close_approach_data": [
        {
            "close_approach_date": "1957-06-06",
            "close_approach_date_full": "1957-Jun-06 16:52",
            "epoch_date_close_approach": -396688080000,
            "relative_velocity": {
                "kilometers_per_second": "18.1489058843",
                "kilometers_per_hour": "65336.0611836575",
                "miles_per_hour": "40597.2875727009"
            },
            "miss_distance": {
                "astronomical": "0.3941269803",
                "lunar": "153.3153953367",
                "kilometers": "58960556.762411961",
                "miles": "36636391.1201326218"
            },
            "orbiting_body": "Earth"
        },
        {
            "close_approach_date": "2006-09-26",
            "close_approach_date_full": "2006-Sep-26 19:57",
            "epoch_date_close_approach": 1159300620000,
            "relative_velocity": {
                "kilometers_per_second": "18.1750400171",
                "kilometers_per_hour": "65430.144061682",
                "miles_per_hour": "40655.7470143268"
            },
            "miss_distance": {
                "astronomical": "0.3924967976",
                "lunar": "152.6812542664",
                "kilometers": "58716684.902781112",
                "miles": "36484856.1733268656"
            },
            "orbiting_body": "Earth"
        },
        {
            "close_approach_date": "2019-08-05",
            "close_approach_date_full": "2019-Aug-05 08:07",
            "epoch_date_close_approach": 1564992420000,
            "relative_velocity": {
                "kilometers_per_second": "6.1896863418",
                "kilometers_per_hour": "22282.8708303316",
                "miles_per_hour": "13845.7093778802"
            },
            "miss_distance": {
                "astronomical": "0.0115351918",
                "lunar": "4.4871896102",
                "kilometers": "1725640.123321466",
                "miles": "1072263.0511335908"
            },
            "orbiting_body": "Earth"
        },
        {
            "close_approach_date": "2032-06-15",
            "close_approach_date_full": "2032-Jun-15 19:23",
            "epoch_date_close_approach": 1970940180000,
            "relative_velocity": {
                "kilometers_per_second": "14.1805935686",
                "kilometers_per_hour": "51050.1368468333",
                "miles_per_hour": "31720.5697535226"
            },
            "miss_distance": {
                "astronomical": "0.2567899204",
                "lunar": "99.8912790356",
                "kilometers": "38415225.129309548",
                "miles": "23870114.0234578424"
            },
            "orbiting_body": "Earth"
        },
        {
            "close_approach_date": "2071-08-31",
            "close_approach_date_full": "2071-Aug-31 03:10",
            "epoch_date_close_approach": 3208216200000,
            "relative_velocity": {
                "kilometers_per_second": "10.2100839277",
                "kilometers_per_hour": "36756.3021396772",
                "miles_per_hour": "22838.9367378455"
            },
            "miss_distance": {
                "astronomical": "0.0717778107",
                "lunar": "27.9215683623",
                "kilometers": "10737807.593983209",
                "miles": "6672164.2465339242"
            },
            "orbiting_body": "Mars"
        }
    ],
    "orbital_data": {
        "orbit_id": "2",
        "orbit_determination_date": "2019-08-16 05:29:37",
        "first_observation_date": "2019-07-26",
        "last_observation_date": "2019-08-11",
        "data_arc_in_days": 16,
        "observations_used": 20,
        "orbit_uncertainty": "6",
        "minimum_orbit_intersection": ".0118931",
        "jupiter_tisserand_invariant": "3.831",
        "epoch_osculation": "2459000.5",
        "eccentricity": ".4559396597841469",
        "semi_major_axis": "1.885879826089661",
        "inclination": ".9590365866567199",
        "ascending_node_longitude": "305.6318377224133",
        "orbital_period": "945.9527606439271",
        "perihelion_distance": "1.026032419788555",
        "perihelion_argument": "6.23760067660786",
        "aphelion_distance": "2.745727232390768",
        "perihelion_time": "2458700.439951232670",
        "mean_anomaly": "114.1934587544376",
        "mean_motion": ".380568686913014",
        "equinox": "J2000",
        "orbit_class": {
            "orbit_class_type": "AMO",
            "orbit_class_description": "Near-Earth asteroid orbits similar to that of 1221 Amor",
            "orbit_class_range": "1.017 AU < q (perihelion) < 1.3 AU"
        }
    },
    "is_sentry_object": false
}